#dP2024  5  7 18  0  0.00000000      96 __u+U IGS20 EXT  IAC
## 2313 237600.00000000   900.00000000 60437 0.7500000000000
+  119   C06C07C08C09C10C11C12C13C14C16C19C20C21C22C23C24C25
+        C26C27C28C29C30C32C33C34C35C36C37C38C39C40C41C42C43
+        C44C45C46E02E03E04E05E07E08E09E10E11E12E13E14E15E18
+        E19E21E24E25E26E27E30E31E33E34E36G02G03G04G05G06G07
+        G08G09G10G11G12G13G14G15G16G17G18G19G20G21G22G23G24
+        G25G26G27G28G29G30G31G32J02J03J04R01R02R03R04R05R07
+        R08R09R11R12R13R14R15R16R17R18R19R20R21R22R24R25R26
++        10 10 10 10 10  9  8  9  9  9  9  8  9  7  7  8  9
++        10  8  8  8  9  9  9  8  9  9  9  8 10 10  9  9  8
++         8  9  8  6  7  7  8  7  7  8  7  7  8  8  6  8  7
++         7  7  8  7  8  8  7  7  8  8  7  7  7  6  7  7  7
++         7  7  8  7  7  8  9  7  6  7  8  7  7  8  7  8  6
++         8  7  7  7  7  7  7  6 10 10  0  9  7  8  7  8  8
++         8 10  8  7  8  7  8  8  8  7 10  8  9  8  7  9  8
%c M  cc GPS ccc cccc cccc cccc cccc ccccc ccccc ccccc ccccc
%c cc cc ccc ccc cccc cccc cccc cccc ccccc ccccc ccccc ccccc
%f  0.0000000  0.000000000  0.00000000000  0.000000000000000
%f  0.0000000  0.000000000  0.00000000000  0.000000000000000
%i    0    0    0    0      0      0      0      0         0
%i    0    0    0    0      0      0      0      0         0
/* IAC                                ULTRA-RAPID PREDICTION
/* S/V CLOCKS ARE ALIGNED TO GNSS TIME                      
/* G:C1WC2W R:C1PC2P E:C1XC5X C:C2IC6I J:C1CC2S             
/* PCV:IGS20_2290 OL/AL:FES2004  NONE     YN ORB:CoN CLK:CoN
*  2024 05 08  6 15  0.00000000
PC06  -2987.957979  25756.462079 -33102.362486    405.039726
PC07 -17533.444589  33961.208933  17643.541085   -749.626772
PC08  -5422.584775  39714.093163  13397.707470    -94.540155
PC09   3887.569459  28141.055886 -30474.212201   -870.558036
PC10  -8860.824333  33735.604023  23640.903268     33.281097
PC11  18701.702986  13890.724448  15431.895001    551.434463
PC12  -1755.375253  15435.739170  23213.074121   -242.811663
PC13   -815.456863  41765.872923   6844.019129    434.674303
PC14   8102.809760  14348.750239 -22496.401549    830.095262
PC16  -7622.618652  23046.631775 -34150.112521   -507.430575
PC19 -15064.911857  -5719.368091  22805.274324   -912.986483
PC20  -1142.959856 -19850.469622  19610.370464   -441.203622
PC21 -14860.903907  23229.661364  -4131.638317   -966.011587
PC22 -21202.793659  12557.912380  13059.837559    -12.262726
PC23  16616.811161  -1903.242515  22344.674959   -778.068066
PC24   7863.328129  26556.381728  -3520.318917    927.207204
PC25  17723.465396  16848.260772  13451.686278    394.323798
PC26  -5492.654264  20481.992503 -18173.030876   -288.213895
PC27  11763.827647 -13430.687879 -21468.075051    309.824461
PC28  25145.276982  -4195.187153 -11352.623437    237.365268
PC29 -25208.246157  -8699.199607  -8235.882162    278.511721
PC30  -8599.233383 -16013.010886 -21192.737570    -72.269010
PC32  14724.610827 -23370.627429   4080.022367   -618.307696
PC33  15093.637411   5662.748591 -22776.486532   -966.382553
PC34  10342.392940  15805.693552  20517.656615    428.991549
PC35 -25152.840211   4969.221388  11045.330362    368.406263
PC36 -17299.825081 -17323.451100 -13363.982920     75.037912
PC37   6129.360826 -20151.525697  18306.149589   -971.128543
PC38  -9405.289010  36332.083236  19391.589204    153.771382
PC39 -11821.409921  21012.585781 -34526.621014     -8.273277
PC40 -24942.309298  28884.855727  17598.639133    -69.127472
PC41  21157.792036 -11966.891188 -13674.110132   -942.597040
PC42   -269.893948  20740.692166 -18604.066356   -442.735028
PC43  24705.382988   9277.296956   9026.618591     70.858420
PC44 -11478.688356  13924.714495  21274.056748    466.830331
PC45 -16534.342555   1710.810353 -22413.468044    -84.509132
PC46  -8300.286069 -26474.731796   2798.607547   -146.406438
PE02  15314.475251 -20186.586004  15286.341579    125.668089
PE03  24234.764252 -14427.364897   9016.126434   -112.321578
PE04  -5854.562073  18370.550144 -22443.013232   -391.868366
PE05  27987.117881  -2099.286674  -9409.138956   4745.707198
PE07 -15035.258646 -11777.361247  22621.692590   -118.901456
PE08   6832.617285 -18328.682329  22227.248262   -267.264758
PE09  14929.865324  11681.186829 -22729.861555   -435.057501
PE10  13174.649969  23143.703445  12910.128659   -623.119480
PE11  20396.435186  21226.711160   2983.652866   2906.636827
PE12   4620.528432  21518.170840  19774.013137  -1028.693331
PE13 -20098.129465 -21438.559275  -3613.920664    -21.453107
PE14 -12183.277584 -14874.928997 -20901.052188     29.585464
PE15  -4168.441255 -21285.457423 -20147.107895   -101.607987
PE18  26742.429923   3031.914286  11912.271626     86.358681
PE19 -25471.961029  13255.110530  -7163.309412   -102.837532
PE21 -17117.677264    238.447834 -24151.036578   -593.347207
PE24   8782.782244  20956.773457  18961.048360   -750.386462
PE25  17046.613737    238.076597  24199.436759      4.248942
PE26 -23975.184405  -8493.333800  15145.310353    448.127418
PE27  -9006.605015 -20658.872948 -19188.865677   -343.901822
PE30   4476.215843 -29116.620396  -2861.116787   -277.972794
PE31  -4313.523833  29132.376085   2979.868598    -22.907976
PE33 -14377.612575   8206.878029  24536.078730     11.413131
PE34  13958.940764  -8683.481301 -24623.688545   -110.021676
PE36  24007.188275   9059.028414 -14747.087065   -224.092782
PG02 -22710.577542 -13876.916429   2795.700897   -440.019479
PG03 -12974.996271  -8323.468074  21495.412406    352.144913
PG04 -22139.490106  -3427.013362  14389.033763    356.269122
PG05   6758.401573  21604.357267 -13995.518688   -171.929690
PG06  -4297.498506  15018.440656  21522.043988    284.118016
PG07 -19702.444523   -334.396052 -17510.893168   -124.209135
PG08 -14557.149493  -9683.078186 -20216.890787    166.457003
PG09 -25339.889908   7368.557861   3171.808651    188.401326
PG10  10544.721415 -22130.643689  -9596.408187    -19.600165
PG11   7893.848043  20957.614253  14342.389719   -656.761537
PG12  12121.883666  10830.555532  20731.752830   -503.454718
PG13   5171.715162  14298.439608 -21994.193993    648.826652
PG14 -13265.102180  19094.181828 -12618.599813    395.438932
PG15  15545.048656   8624.671159 -20282.991865    156.701542
PG16  -1856.096177 -23755.139309 -11583.181993   -297.244152
PG17 -20854.869793  13359.106669  10227.192857    707.947631
PG18  18778.459210   -479.115451 -18842.140462   -607.241789
PG19 -13279.420810  15180.187171  16895.035903    479.029315
PG20   2029.883082  26385.114886  -3029.276666    377.367601
PG21 -21057.570299 -16849.964205  -2355.725229    122.885383
PG22 -10058.223671  24233.760081  -4607.180230    -10.586682
PG23  14526.158688 -11897.927553 -18681.974497    220.067216
PG24  21798.057244  15568.417219   -425.350554   -467.549911
PG25  15405.924551   -109.647412  21277.224325    495.325222
PG26   4127.758920 -25945.293871   2003.434984    156.001860
PG27  -2250.612073 -15354.986217 -21807.028870    -22.908933
PG28   6553.829869 -14026.919950  21568.573914   -234.885602
PG29  25842.271815  -3189.982154   5481.955401   -599.224701
PG30 -12052.933112  10264.814517 -21197.044714   -393.705474
PG31  -3332.210612 -19442.831032  17382.489204   -227.889569
PG32  18019.104764 -15480.409013  11882.630912   -618.380637
PJ02 -24061.287097  32296.787775  -7582.729897     -0.111105
PJ03 -27191.880716  22151.201960  28549.119234      0.140186
PJ04      0.000000      0.000000      0.000000     50.310610
PR01 -17535.159196  18265.862060  -3004.095770     84.723686
PR02  -6550.564602  16752.583577 -18064.594540    -22.888955
PR03   9077.615544   6344.526832 -22923.119654     99.744533
PR04  19159.870451  -7252.539772 -15157.296020    235.445825
PR05  19116.598260 -16856.987169    777.370804    131.178307
PR07  -9838.647743  -5658.330140  22893.084155     81.914017
PR08 -19254.079221   7490.689580  15045.566563    -75.350009
PR09  -3681.518585 -24930.442948   4246.824384    185.352084
PR11 -11743.908467  -4736.370944 -22135.237024     25.458139
PR12  -6093.296991  15745.006440 -19101.150904     39.892995
PR13   2031.290246  24515.231708  -6764.979296    -47.168131
PR14  10471.540195  19513.435546  12651.801751     26.455748
PR15  11664.502155   3024.084632  22500.898019     80.026294
PR16   6023.155654 -15544.608609  19331.410833     25.397716
PR17  20557.483079  11733.769843   9557.195668     84.862622
PR18  23944.892258   5255.781643  -6943.664236    140.987233
PR19  16719.333961  -2586.162231 -19096.179625   -275.849248
PR20  -4011.953800 -12176.878337 -22057.988877   -112.457700
PR21 -20364.222642 -11895.305784  -9695.767389    -99.062747
PR22 -23678.453049  -5127.818572   8027.868591    113.271142
PR24   4934.427317  12532.141993  21675.394445    -54.940961
PR25 -20141.457871 -12595.038665  -9268.051142    -34.349115
PR26 -18774.656093   6683.995513  15929.209095    -20.829998
EOF
